TJS-11                  
1 59020U 24037A   26087.71150553 -.00000390  00000+0  00000+0 0  9993
2 59020   4.3071 326.0927 0005667  58.4793 178.0209  1.00271409  7774
